ID,Address,Suburb,Price,Type,Date,Rooms,Bathroom,Car,LandSize,Age,Latitude,Longitude,train_station_id,distance_to_train_station,travel_min_to_CBD,over_priced?,crime_A_average,crime_B_average,crime_C_average,closest_primary_school,distance_to_closest_primary,primary_school_ranking,closest_secondary_school,distance_to_closest_secondary,secondary_school_ranking
ID936583900,1/21 Herbert St,MOUNT WAVERLEY,730000.0,u,12/08/2017,2,1.0,1.0,292.0,19.0,-37.86528,145.11775,19848,3220.6294115364485,30.666666666666668,0,1471.0,7759.666666666667,779.6666666666666,Essex Heights Primary School,315.3930927667825,239,Ashwood High School,1270.180242409544,241
ID639338302,29 Stewart St,BRUNSWICK,2230000.0,h,4/03/2017,4,2.0,3.0,851.0,79.0,-37.7637,144.9662,19967,557.220767244316,27.333333333333332,0,941.3333333333334,5813.0,575.6666666666666,St Margaret Mary's School,592.2989465905631,483,Sydney Road Community School,767.726223135936,447
ID867071077,47 Kellett Gr,KEW,2245000.0,h,27/11/2016,4,3.0,2.0,627.0,60.0,-37.7915,145.0348,19931,1491.925516966768,24.0,0,271.6666666666667,771.6666666666666,74.0,Alphington Primary School,921.367308992262,81,Alphington Grammar School,1238.3054202549554,86
ID837469648,1/119 Melrose Dr,TULLAMARINE,586000.0,h,8/07/2017,4,1.0,3.0,0.0,44.0,-37.70695,144.88513999999995,20032,2838.0643386857514,36.0,0,256.0,511.3333333333333,54.666666666666664,Tullamarine Primary School,720.9428639685892,not ranked,Gladstone Park Secondary College,1960.2415354268728,290
ID867645514,12 Pleasance St,BENTLEIGH,1573000.0,h,17/06/2017,3,1.0,2.0,670.0,89.0,-37.91855,145.02628,19939,949.274894644733,35.15384615384615,1,959.0,4476.666666666667,324.0,Bentleigh West Primary School,230.5317907469585,31,Brighton Secondary College,653.7648143929102,213
ID220705510,40 Zetland Rd,MONT ALBERT,2350000.0,h,12/11/2016,6,3.0,3.0,2026.0,40.0,-37.8176,145.1117,19896,579.379973176508,28.785714285714285,0,278.0,489.0,65.0,Box Hill Senior Secondary College,930.4550953286755,not ranked,Box Hill Senior Secondary College,930.4550953286755,not ranked
ID205441607,44 Draper St,ALBERT PARK,1810000.0,h,10/12/2016,2,1.0,0.0,240.0,119.0,-37.8379,144.9539,20043,2181.3513381028156,0.0,1,1202.0,5034.333333333333,333.0,Galilee Regional Catholic Primary School,209.80250637251126,208,Albert Park College,958.5528897822295,131
ID255293260,74 Arthur St,BUNDOORA,796000.0,h,24/06/2017,3,2.0,2.0,534.0,69.0,-37.69852,145.04836,20008,3238.4332019754806,38.22222222222222,0,684.0,1695.6666666666667,161.0,Norris Bank Primary School,673.3785301200443,not ranked,Northside Christian College,679.1662149599808,162
ID798309297,498 Waterdale Rd,HEIDELBERG HEIGHTS,950000.0,h,19/11/2016,3,1.0,2.0,800.0,59.0,-37.7406,145.0483,19936,1590.7809002791494,31.75,0,1150.6666666666667,7827.0,922.3333333333334,St Pius X School,725.8628808566754,not ranked,East Preston Islamic College,1295.5642851328355,491
ID141279127,5/333 George St,DONCASTER,772000.0,u,10/12/2016,3,2.0,1.0,203.0,33.0,-37.7776,145.1267,20042,4656.342159968843,25.775,0,1566.6666666666667,8895.333333333334,491.0,St Gregory the Great School,512.3165170954807,174,Templestowe College,1196.5057072803609,307
ID481504862,111/18 Bent St,KENSINGTON,631090.0,u,27/06/2016,2,2.0,1.0,2136.0,7.0,-37.7956,144.935,19972,180.42391453519213,17.0,0,271.6666666666667,771.6666666666666,74.0,Holy Rosary School,547.1328397886126,437,St Aloysius College,755.468716794288,170
ID523765134,8 Marwarra St,RINGWOOD EAST,910000.0,h,3/06/2017,4,1.0,2.0,669.0,54.0,-37.81656,145.24247,19879,849.8853342365685,41.642857142857146,0,1609.3333333333333,6840.666666666667,525.6666666666666,Our Lady of Perpetual Help School,904.835934236262,not ranked,Ringwood Secondary College,292.26288082364033,185
ID546158019,299 South Rd,BRIGHTON EAST,1590000.0,h,8/10/2016,3,3.0,2.0,481.0,7.0,-37.931,145.0198,19938,1522.2701387452323,36.84615384615385,0,2744.3333333333335,10289.666666666666,780.0,St Leonard's College,1107.101340864654,33,St Leonard's College,1107.101340864654,43
ID412353159,481 Albion St,BRUNSWICK WEST,1585000.0,h,30/07/2016,4,1.0,2.0,562.0,99.0,-37.7583,144.9428,19967,1607.6088467727961,27.333333333333332,0,958.6666666666666,5673.0,628.0,Brunswick North West Primary School,190.43176165377457,456,Brunswick Secondary College,1766.7672293315577,211
ID437986939,4 Frederick St,BRUNSWICK,1170000.0,h,26/07/2016,3,1.0,0.0,285.0,129.0,-37.7634,144.9593,19967,269.3330962509511,27.333333333333332,0,958.6666666666666,5673.0,628.0,Brunswick North Primary School,875.5748595146237,not ranked,Sydney Road Community School,736.1241489084769,447
ID874449180,2 Gumleaf Ct,CAIRNLEA,636000.0,h,8/07/2017,3,2.0,2.0,585.0,19.0,-37.75777,144.77974,20002,2293.577810761835,31.375,0,1288.3333333333333,4242.333333333333,480.0,Deer Park North Primary School,534.5573102002489,not ranked,Victoria University Secondary College,2033.8415557718092,not ranked
ID434285922,20 Howie St,GLEN IRIS,1875000.0,h,13/08/2016,3,2.0,3.0,607.0,99.0,-37.8534,145.0735,19849,649.2721148574082,28.666666666666668,0,1923.6666666666667,8979.333333333334,620.3333333333334,St Cecilia's School,864.357735078593,50,Korowa Anglican Girls' School,1884.7510519148757,13
ID246788039,5/50 Barkly St,CARLTON,350000.0,u,1/07/2017,1,1.0,1.0,0.0,49.0,-37.79859,144.97336,19843,1388.0246032699943,6.100558659217877,0,101.33333333333333,253.66666666666666,33.0,Carlton Primary School,419.7049582795773,not ranked,Academy of Mary Immaculate,577.4734749412218,144
ID952572787,15A Riversdale Av,CARRUM,825000.0,h,22/07/2017,3,2.0,1.0,355.0,29.0,-38.07196,145.13036,19858,768.7190041176545,60.583333333333336,0,5.0,73.0,1.0,Bonbeach Primary School,735.5924671663913,368,Patterson River Secondary College,1341.1602496444111,396
ID376117659,11 Nottingham St,KENSINGTON,1900000.0,h,16/04/2016,5,2.0,2.0,566.0,129.0,-37.7893,144.933,20040,416.37117638261765,18.0,0,271.6666666666667,771.6666666666666,74.0,Debney Meadows Primary School,414.58493885436366,not ranked,Kensington Community High School,671.1182434254581,not ranked
ID315973230,12 Strada Cr,WHEELERS HILL,1245000.0,h,26/08/2017,4,2.0,2.0,652.0,38.0,-37.90562,145.16761,19914,4446.906037929336,37.0,0,990.0,3070.0,411.0,Good Shepherd School,310.4157499304304,49,Brentwood Secondary College,689.3626674800201,168
ID867768342,18 Primula Bvd,GOWANBRAE,800000.0,h,26/07/2016,4,2.0,2.0,719.0,19.0,-37.7062,144.8978,20032,1720.3584583466322,36.0,0,1683.6666666666667,8938.666666666666,509.3333333333333,Glenroy West Primary School,934.4207044511177,not ranked,Gladstone Park Secondary College,1954.0418742490642,290
ID936844579,19 Derna St,HEIDELBERG WEST,752000.0,h,18/03/2017,2,1.0,0.0,627.0,64.0,-37.7469,145.0399,19935,2151.560804365616,29.823529411764707,0,1173.6666666666667,8523.666666666666,974.6666666666666,St Pius X School,562.4601705174006,not ranked,East Preston Islamic College,1477.087817771561,491
ID803738727,24 Tivoli Rd,SOUTH YARRA,1810000.0,h,24/06/2017,3,2.0,2.0,273.0,49.0,-37.8386,144.99851999999996,19959,543.3595857273957,12.543859649122806,0,1245.0,3886.0,447.6666666666667,Richmond Primary School,1006.4758085432167,260,Melbourne High School,343.95319940074194,2
ID126010582,1/249 Lower Plenty Rd,ROSANNA,720000.0,h,13/08/2016,3,1.0,2.0,604.0,109.0,-37.7377,145.0737,19936,880.4358821837897,31.75,0,824.6666666666666,1890.3333333333333,159.33333333333334,Rosanna Golf Links Primary School,296.82212534105076,not ranked,Viewbank College,1199.5845476231204,96
ID255293260,74 Arthur St,BUNDOORA,796000.0,h,24/06/2017,3,2.0,2.0,534.0,69.0,-37.69852,145.04836,20008,3238.4332019754806,38.22222222222222,0,684.0,1695.6666666666667,161.0,Norris Bank Primary School,673.3785301200443,not ranked,Northside Christian College,679.1662149599808,162
ID481962672,77 Corrigan Av,BROOKLYN,555000.0,u,29/07/2017,2,2.0,1.0,207.0,9.0,-37.82001,144.84245,20022,2930.6713716619797,21.4,0,444.6666666666667,981.3333333333334,239.66666666666666,Annunciation School,496.5318918522089,not ranked,Emmanuel College,1292.7366054189627,180
ID688866347,10 Dundalk St,SUNSHINE,651500.0,h,8/04/2017,3,1.0,1.0,555.0,69.0,-37.7988,144.822,22241,1490.3094932872832,15.85,0,1412.0,6364.0,699.3333333333334,St Peter's School,266.66997976285836,345,Sunshine College,1130.4336709913132,233
ID284839300,14 Myers St,SUNSHINE WEST,485000.0,h,12/11/2016,3,4.0,2.0,482.0,64.0,-37.7904,144.8133,20020,1273.677052678478,21.333333333333332,0,2403.6666666666665,5212.333333333333,586.6666666666666,Sunshine Heights Primary School,473.0201129549027,not ranked,Marian College,697.3010678194393,not ranked
ID260419890,15 Howitt St,GLEN IRIS,3010000.0,h,24/09/2016,4,3.0,2.0,677.0,109.0,-37.8476,145.0554,19850,1817.2194144450418,26.666666666666668,0,1923.6666666666667,8979.333333333334,620.3333333333334,Camberwell South Primary School,634.8495972886096,327,Alia College,1022.4310855871325,500
ID542084653,89 Sayers Rd,WILLIAMS LANDING,510000.0,h,1/07/2017,4,2.0,2.0,443.0,69.0,-37.8543,144.74437,46468,1753.6311847197908,28.133333333333333,0,98.66666666666667,190.66666666666666,19.0,Dohertys Creek P-9 College,1560.1897912230713,not ranked,Dohertys Creek P-9 College,1560.1897912230713,not ranked
ID613127691,160 New St,BRIGHTON,1601000.0,h,17/09/2016,2,1.0,1.0,380.0,61.0,-37.9166,144.9926,19951,363.518435214197,26.5,0,2744.3333333333335,10289.666666666666,780.0,St Joan of Arc School,413.72465344003473,95,Brighton Grammar School,616.715525634982,46
ID915137233,208/11 Hillingdon Pl,PRAHRAN,550000.0,u,8/04/2017,1,1.0,1.0,0.0,119.0,-37.8516,144.9943,19958,453.8729873243638,13.5,0,705.3333333333334,5479.666666666667,335.0,Windsor Primary School,645.9269025472775,not ranked,Prahran High School,287.6055892863672,not ranked
ID502532088,69 Buckingham St,RICHMOND,1525000.0,h,9/09/2017,3,2.0,0.0,195.0,129.0,-37.81384,145.00358,19977,1047.0006003410433,10.235294117647058,0,885.0,1901.0,227.66666666666666,Yarra Primary School,354.4844853364679,475,Lynall Hall Community School,315.75874814674825,559
